[{"OBJECT_NAME":"SWAS","OBJECT_ID":"1998-071A","EPOCH":"2026-03-09T12:50:12.826752","MEAN_MOTION":15.08888192,"ECCENTRICITY":0.00040991,"INCLINATION":69.8952,"RA_OF_ASC_NODE":124.3662,"ARG_OF_PERICENTER":14.3215,"MEAN_ANOMALY":345.8065,"EPHEMERIS_TYPE":0,"CLASSIFICATION_TYPE":"U","NORAD_CAT_ID":25560,"ELEMENT_SET_NO":999,"REV_AT_EPOCH":48223,"BSTAR":0.00029986322,"MEAN_MOTION_DOT":4.636e-5,"MEAN_MOTION_DDOT":0},{"OBJECT_NAME":"STARLINK-3685","OBJECT_ID":"2022-029AD","EPOCH":"2026-03-09T06:27:57.002400","MEAN_MOTION":15.0883145,"ECCENTRICITY":0.00013346,"INCLINATION":53.2174,"RA_OF_ASC_NODE":81.0082,"ARG_OF_PERICENTER":90.6968,"MEAN_ANOMALY":269.4177,"EPHEMERIS_TYPE":0,"CLASSIFICATION_TYPE":"U","NORAD_CAT_ID":52115,"ELEMENT_SET_NO":999,"REV_AT_EPOCH":22072,"BSTAR":0.00010459442,"MEAN_MOTION_DOT":1.377e-5,"MEAN_MOTION_DDOT":0}]
